COSMOS 2534 [GLONASS-M] 
1 44299U 19030A   26196.86836806  .00000052  00000+0  00000+0 0  9995
2 44299  64.3704 191.6506 0013524 275.0197 267.3680  2.13102194 55531
BEIDOU-3 IGSO-2         
1 44337U 19035A   26197.29340313 -.00000138  00000+0  00000+0 0  9990
2 44337  55.2503 158.6068 0039402 216.5730 143.0260  1.00257273 25964
NAVSTAR 78 (USA 293)    
1 44506U 19056A   26196.80522804 -.00000096  00000+0  00000+0 0  9997
2 44506  55.6216 330.0052 0063464 198.1718 333.4897  2.00569977 50644
BEIDOU-3 M24            
1 44542U 19061A   26196.16401828  .00000041  00000+0  00000+0 0  9993
2 44542  54.3974 181.7843 0008645 359.6110   0.3623  1.86229132 46315
BEIDOU-3 M23            
1 44543U 19061B   26196.83281598  .00000040  00000+0  00000+0 0  9997
2 44543  54.3957 181.7301 0005937 340.6955  19.0868  1.86227519 46331
EUTELSAT 5 WEST B       
1 44624U 19067A   26197.26896301 -.00000053  00000+0  00000+0 0  9990
2 44624   0.0828 316.7221 0003059 158.4418 270.7577  1.00272156 24724
BEIDOU-3 M22            
1 44793U 19078A   26194.39343167 -.00000062  00000+0  00000+0 0  9997
2 44793  53.9106 298.9058 0005750  50.3045 309.7753  1.86227300 45134
BEIDOU-3 M21            
1 44794U 19078B   26196.14417837 -.00000066  00000+0  00000+0 0  9993
2 44794  53.8818 298.8044 0003444  48.1201 311.9449  1.86227652 45176
COSMOS 2544 [GLONASS-M] 
1 44850U 19088A   26195.24650199 -.00000008  00000+0  00000+0 0  9993
2 44850  65.5799  72.8282 0012152 253.9346 106.0066  2.13102807 51296
BEIDOU-3 M19            
1 44864U 19090A   26196.14526441 -.00000041  00000+0  00000+0 0  9990
2 44864  56.5835  61.8670 0016849 297.6358 260.7026  1.86231024 44756
BEIDOU-3 M20            
1 44865U 19090B   26195.48425657 -.00000039  00000+0  00000+0 0  9991
2 44865  56.5841  61.9230 0014392 312.7381 252.0119  1.86231148 44724
BEIDOU-3 G2             
1 45344U 20017A   26197.14317778 -.00000151  00000+0  00000+0 0  9999
2 45344   2.9215  47.7426 0001940  61.9257 315.8648  1.00268904 23555
COSMOS 2545 [GLONASS-M] 
1 45358U 20018A   26196.37994293 -.00000061  00000+0  00000+0 0  9992
2 45358  64.3368 311.4285 0009576 229.8153 130.1163  2.13102376 49269
BEIDOU-3 G3             
1 45807U 20040A   26197.29175645 -.00000365  00000+0  00000+0 0  9997
2 45807   2.5166  67.4780 0002215 307.7814 134.3773  1.00275953 22361
NAVSTAR 79 (USA 304)    
1 45854U 20041A   26196.90433556 -.00000075  00000+0  00000+0 0  9993
2 45854  56.6887  27.8299 0065213 204.6780 335.6765  2.00557785 44618
GALAXY 30 (G-30)        
1 46114U 20056C   26196.96005457  .00000026  00000+0  00000+0 0  9995
2 46114   0.0128  68.4269 0002009  47.3472  38.6367  1.00272066 21585
COSMOS 2547 [GLONASS-K] 
1 46805U 20075A   26196.56966866  .00000054  00000+0  00000+0 0  9990
2 46805  64.6014 191.5282 0009458 239.8249 120.0839  2.13099910 44518
NAVSTAR 80 (USA 309)    
1 46826U 20078A   26196.68794910  .00000046  00000+0  00000+0 0  9999
2 46826  53.9772 209.6224 0074562 207.8336 153.6237  2.00564949 42089
NAVSTAR 81 (USA 319)    
1 48859U 21054A   26196.92720773 -.00000098  00000+0  00000+0 0  9993
2 48859  55.1591 331.3041 0026474 228.5431 132.0309  2.00566994 37330
QZS-1R (MICHIBIKI-1R)   
1 49336U 21096A   26195.57629205 -.00000304  00000+0  00000+0 0  9998
2 49336  37.5157  79.1769 0754906 272.2285 280.2291  1.00245239 17281
GSAT0223 (GALILEO 27)   
1 49809U 21116A   26197.02848203 -.00000101  00000+0  00000+0 0  9994
2 49809  57.1502 340.8963 0002435 195.4357 344.9614  1.70476009 28671
GSAT0224 (GALILEO 28)   
1 49810U 21116B   26196.53681661 -.00000100  00000+0  00000+0 0  9993
2 49810  57.1508 340.9083 0001891 182.1606 169.1216  1.70475983 28684
COSMOS 2557 [GLONASS-K] 
1 52984U 22075A   26196.26454493 -.00000064  00000+0  00000+0 0  9994
2 52984  64.2806 313.4964 0010843 271.2690  88.6188  2.13102178 31311
COSMOS 2559 [GLONASS-K] 
1 54031U 22130A   26195.61497873 -.00000064  00000+0  00000+0 0  9998
2 54031  64.2533 313.6016 0013085 181.0015 179.0060  2.13101643 29275
COSMOS 2564 [GLONASS-M] 
1 54377U 22161A   26195.92736262  .00000059  00000+0  00000+0 0  9990
2 54377  64.7437 191.7908 0012238 224.9723 134.9352  2.13101973 28227
NAVSTAR 82 (USA 343)    
1 55268U 23009A   26197.12636435  .00000016  00000+0  00000+0 0  9990
2 55268  55.1242 147.3813 0006259 321.9339 221.1207  2.00569500 25825
BEIDOU-3 G4             
1 56564U 23066A   26197.29764981 -.00000291  00000+0  00000+0 0  9995
2 56564   0.4597 339.2862 0004918 186.4792  15.5859  1.00272164 11687
NVS-01 (IRNSS-1J)       
1 56759U 23076A   26197.29556980 -.00000348  00000+0  00000+0 0  9993
2 56759   2.0989 243.0279 0003523   6.5592 280.3397  1.00264283 11403
COSMOS 2569 [GLONASS-K2]
1 57517U 23114A   26196.87819896 -.00000013  00000+0  00000+0 0  9999
2 57517  65.3185  71.6532 0009655 295.9092  64.0686  2.13103741 22871
BEIDOU-3 M28            
1 58654U 23207A   26196.75809972 -.00000046  00000+0  00000+0 0  9992
2 58654  55.7781  61.3393 0002411   5.4366 354.6394  1.86229674 17377
BEIDOU-3 M26            
1 58655U 23207B   26194.94472015 -.00000041  00000+0  00000+0 0  9991
2 58655  55.7789  61.3870 0002016 324.6613  35.3983  1.86229657 17321
